STARLINK-35504          
1 66325U 25253G   25335.27687451  .00157191  00000+0  26242-2 0  9998
2 66325  42.9997  51.7479 0001583 258.7980 101.2703 15.50659884  5159
STARLINK-35479          
1 66326U 25253H   25334.63169643  .00105303  00000+0  17754-2 0  9992
2 66326  43.0001  55.5057 0001093 276.0977  83.9758 15.50600751  5051
STARLINK-35507          
1 66327U 25253J   25334.69816838  .00105538  00000+0  17791-2 0  9995
2 66327  43.0002  55.1470 0001478 276.0037  84.0654 15.50603191  5061
STARLINK-35460          
1 66328U 25253K   25335.27481743  .00111768  00000+0  18816-2 0  9995
2 66328  42.9996  51.7299 0001214 263.0464  97.0258 15.50612919  5153
STARLINK-35505          
1 66329U 25253L   25335.27790407  .00185252  00000+0  29707-2 0  9996
2 66329  43.0000  51.7575 0006122 249.3060 110.7144 15.51663748  5155
STARLINK-35512          
1 66330U 25253M   25335.25002315 -.01984143  00000+0 -47665-1 0  9991
2 66330  43.0011  51.9459 0001238 291.3813 263.3403 15.43990626  5082
STARLINK-35257          
1 66331U 25253N   25335.27378776  .00133770  00000+0  22444-2 0  9999
2 66331  42.9997  51.7226 0001664 266.0765  93.9905 15.50614723  5153
STARLINK-35322          
1 66332U 25253P   25335.27550366  .00116731  00000+0  19639-2 0  9997
2 66332  43.0000  51.7363 0001433 272.5320  87.5376 15.50610041  5156
STARLINK-35400          
1 66333U 25253Q   25334.95205892  .00071715  00000+0  12165-2 0  9992
2 66333  43.0003  53.6088 0000901 285.3607  74.7154 15.50592046  5105
STARLINK-35407          
1 66334U 25253R   25334.69543390  .00081821  00000+0  13875-2 0  9990
2 66334  43.0003  55.1243 0000909 295.1018  64.9747 15.50547998  5069
STARLINK-35417          
1 66335U 25253S   25335.25002315  .00055613  00000+0  13313-2 0  9998
2 66335  43.0005  52.0198 0001417 263.6445 258.1911 15.40645560  5081
STARLINK-35404          
1 66336U 25253T   25335.20903043  .00093011  00000+0  15702-2 0  9990
2 66336  42.9997  52.0962 0000806 269.8503  90.2265 15.50619539  5145
