CCSDS_OMM_VERS = 2.0
CREATION_DATE  = 
ORIGINATOR     = 

OBJECT_NAME    = STARLINK-35504
OBJECT_ID      = 2025-253G
CENTER_NAME    = EARTH
REF_FRAME      = TEME
TIME_SYSTEM    = UTC
MEAN_ELEMENT_THEORY = SGP/SGP4

EPOCH          = 2025-12-01T06:38:41.957664
MEAN_MOTION    = 15.50659884
ECCENTRICITY   = .00015838
INCLINATION    = 42.9997
RA_OF_ASC_NODE = 51.7479
ARG_OF_PERICENTER = 258.7980
MEAN_ANOMALY   = 101.2703

EPHEMERIS_TYPE = 0
CLASSIFICATION_TYPE = U
NORAD_CAT_ID   = 66325
ELEMENT_SET_NO = 999
REV_AT_EPOCH   = 515
BSTAR          = .26242134E-2
MEAN_MOTION_DOT = .157191E-2
MEAN_MOTION_DDOT = 0

CCSDS_OMM_VERS = 2.0
CREATION_DATE  = 
ORIGINATOR     = 

OBJECT_NAME    = STARLINK-35479
OBJECT_ID      = 2025-253H
CENTER_NAME    = EARTH
REF_FRAME      = TEME
TIME_SYSTEM    = UTC
MEAN_ELEMENT_THEORY = SGP/SGP4

EPOCH          = 2025-11-30T15:09:38.571552
MEAN_MOTION    = 15.50600751
ECCENTRICITY   = .00010931
INCLINATION    = 43.0001
RA_OF_ASC_NODE = 55.5057
ARG_OF_PERICENTER = 276.0977
MEAN_ANOMALY   = 83.9758

EPHEMERIS_TYPE = 0
CLASSIFICATION_TYPE = U
NORAD_CAT_ID   = 66326
ELEMENT_SET_NO = 999
REV_AT_EPOCH   = 505
BSTAR          = .17753695E-2
MEAN_MOTION_DOT = .105303E-2
MEAN_MOTION_DDOT = 0

CCSDS_OMM_VERS = 2.0
CREATION_DATE  = 
ORIGINATOR     = 

OBJECT_NAME    = STARLINK-35507
OBJECT_ID      = 2025-253J
CENTER_NAME    = EARTH
REF_FRAME      = TEME
TIME_SYSTEM    = UTC
MEAN_ELEMENT_THEORY = SGP/SGP4

EPOCH          = 2025-11-30T16:45:21.748032
MEAN_MOTION    = 15.50603191
ECCENTRICITY   = .00014781
INCLINATION    = 43.0002
RA_OF_ASC_NODE = 55.1470
ARG_OF_PERICENTER = 276.0037
MEAN_ANOMALY   = 84.0654

EPHEMERIS_TYPE = 0
CLASSIFICATION_TYPE = U
NORAD_CAT_ID   = 66327
ELEMENT_SET_NO = 999
REV_AT_EPOCH   = 506
BSTAR          = .17790984E-2
MEAN_MOTION_DOT = .105538E-2
MEAN_MOTION_DDOT = 0

CCSDS_OMM_VERS = 2.0
CREATION_DATE  = 
ORIGINATOR     = 

OBJECT_NAME    = STARLINK-35460
OBJECT_ID      = 2025-253K
CENTER_NAME    = EARTH
REF_FRAME      = TEME
TIME_SYSTEM    = UTC
MEAN_ELEMENT_THEORY = SGP/SGP4

EPOCH          = 2025-12-01T06:35:44.225952
MEAN_MOTION    = 15.50612919
ECCENTRICITY   = .0001214
INCLINATION    = 42.9996
RA_OF_ASC_NODE = 51.7299
ARG_OF_PERICENTER = 263.0464
MEAN_ANOMALY   = 97.0258

EPHEMERIS_TYPE = 0
CLASSIFICATION_TYPE = U
NORAD_CAT_ID   = 66328
ELEMENT_SET_NO = 999
REV_AT_EPOCH   = 515
BSTAR          = .18816231E-2
MEAN_MOTION_DOT = .111768E-2
MEAN_MOTION_DDOT = 0

CCSDS_OMM_VERS = 2.0
CREATION_DATE  = 
ORIGINATOR     = 

OBJECT_NAME    = STARLINK-35505
OBJECT_ID      = 2025-253L
CENTER_NAME    = EARTH
REF_FRAME      = TEME
TIME_SYSTEM    = UTC
MEAN_ELEMENT_THEORY = SGP/SGP4

EPOCH          = 2025-12-01T06:40:10.911648
MEAN_MOTION    = 15.51663748
ECCENTRICITY   = .0006122
INCLINATION    = 43.0000
RA_OF_ASC_NODE = 51.7575
ARG_OF_PERICENTER = 249.3060
MEAN_ANOMALY   = 110.7144

EPHEMERIS_TYPE = 0
CLASSIFICATION_TYPE = U
NORAD_CAT_ID   = 66329
ELEMENT_SET_NO = 999
REV_AT_EPOCH   = 515
BSTAR          = .29706674E-2
MEAN_MOTION_DOT = .185252E-2
MEAN_MOTION_DDOT = 0

CCSDS_OMM_VERS = 2.0
CREATION_DATE  = 
ORIGINATOR     = 

OBJECT_NAME    = STARLINK-35512
OBJECT_ID      = 2025-253M
CENTER_NAME    = EARTH
REF_FRAME      = TEME
TIME_SYSTEM    = UTC
MEAN_ELEMENT_THEORY = SGP/SGP4

EPOCH          = 2025-12-01T06:00:02.000160
MEAN_MOTION    = 15.43990626
ECCENTRICITY   = .0001238
INCLINATION    = 43.0011
RA_OF_ASC_NODE = 51.9459
ARG_OF_PERICENTER = 291.3813
MEAN_ANOMALY   = 263.3403

EPHEMERIS_TYPE = 0
CLASSIFICATION_TYPE = U
NORAD_CAT_ID   = 66330
ELEMENT_SET_NO = 999
REV_AT_EPOCH   = 508
BSTAR          = -.47665113E-1
MEAN_MOTION_DOT = -.1984143E-1
MEAN_MOTION_DDOT = 0

CCSDS_OMM_VERS = 2.0
CREATION_DATE  = 
ORIGINATOR     = 

OBJECT_NAME    = STARLINK-35257
OBJECT_ID      = 2025-253N
CENTER_NAME    = EARTH
REF_FRAME      = TEME
TIME_SYSTEM    = UTC
MEAN_ELEMENT_THEORY = SGP/SGP4

EPOCH          = 2025-12-01T06:34:15.262464
MEAN_MOTION    = 15.50614723
ECCENTRICITY   = .00016648
INCLINATION    = 42.9997
RA_OF_ASC_NODE = 51.7226
ARG_OF_PERICENTER = 266.0765
MEAN_ANOMALY   = 93.9905

EPHEMERIS_TYPE = 0
CLASSIFICATION_TYPE = U
NORAD_CAT_ID   = 66331
ELEMENT_SET_NO = 999
REV_AT_EPOCH   = 515
BSTAR          = .22443907E-2
MEAN_MOTION_DOT = .13377E-2
MEAN_MOTION_DDOT = 0

CCSDS_OMM_VERS = 2.0
CREATION_DATE  = 
ORIGINATOR     = 

OBJECT_NAME    = STARLINK-35322
OBJECT_ID      = 2025-253P
CENTER_NAME    = EARTH
REF_FRAME      = TEME
TIME_SYSTEM    = UTC
MEAN_ELEMENT_THEORY = SGP/SGP4

EPOCH          = 2025-12-01T06:36:43.516224
MEAN_MOTION    = 15.50610041
ECCENTRICITY   = .00014333
INCLINATION    = 43.0000
RA_OF_ASC_NODE = 51.7363
ARG_OF_PERICENTER = 272.5320
MEAN_ANOMALY   = 87.5376

EPHEMERIS_TYPE = 0
CLASSIFICATION_TYPE = U
NORAD_CAT_ID   = 66332
ELEMENT_SET_NO = 999
REV_AT_EPOCH   = 515
BSTAR          = .1963869E-2
MEAN_MOTION_DOT = .116731E-2
MEAN_MOTION_DDOT = 0

CCSDS_OMM_VERS = 2.0
CREATION_DATE  = 
ORIGINATOR     = 

OBJECT_NAME    = STARLINK-35400
OBJECT_ID      = 2025-253Q
CENTER_NAME    = EARTH
REF_FRAME      = TEME
TIME_SYSTEM    = UTC
MEAN_ELEMENT_THEORY = SGP/SGP4

EPOCH          = 2025-11-30T22:50:57.890688
MEAN_MOTION    = 15.50592046
ECCENTRICITY   = .00009019
INCLINATION    = 43.0003
RA_OF_ASC_NODE = 53.6088
ARG_OF_PERICENTER = 285.3607
MEAN_ANOMALY   = 74.7154

EPHEMERIS_TYPE = 0
CLASSIFICATION_TYPE = U
NORAD_CAT_ID   = 66333
ELEMENT_SET_NO = 999
REV_AT_EPOCH   = 510
BSTAR          = .12165224E-2
MEAN_MOTION_DOT = .71715E-3
MEAN_MOTION_DDOT = 0

CCSDS_OMM_VERS = 2.0
CREATION_DATE  = 
ORIGINATOR     = 

OBJECT_NAME    = STARLINK-35407
OBJECT_ID      = 2025-253R
CENTER_NAME    = EARTH
REF_FRAME      = TEME
TIME_SYSTEM    = UTC
MEAN_ELEMENT_THEORY = SGP/SGP4

EPOCH          = 2025-11-30T16:41:25.488960
MEAN_MOTION    = 15.50547998
ECCENTRICITY   = .00009092
INCLINATION    = 43.0003
RA_OF_ASC_NODE = 55.1243
ARG_OF_PERICENTER = 295.1018
MEAN_ANOMALY   = 64.9747

EPHEMERIS_TYPE = 0
CLASSIFICATION_TYPE = U
NORAD_CAT_ID   = 66334
ELEMENT_SET_NO = 999
REV_AT_EPOCH   = 506
BSTAR          = .13875162E-2
MEAN_MOTION_DOT = .81821E-3
MEAN_MOTION_DDOT = 0

CCSDS_OMM_VERS = 2.0
CREATION_DATE  = 
ORIGINATOR     = 

OBJECT_NAME    = STARLINK-35417
OBJECT_ID      = 2025-253S
CENTER_NAME    = EARTH
REF_FRAME      = TEME
TIME_SYSTEM    = UTC
MEAN_ELEMENT_THEORY = SGP/SGP4

EPOCH          = 2025-12-01T06:00:02.000160
MEAN_MOTION    = 15.40645560
ECCENTRICITY   = .00014175
INCLINATION    = 43.0005
RA_OF_ASC_NODE = 52.0198
ARG_OF_PERICENTER = 263.6445
MEAN_ANOMALY   = 258.1911

EPHEMERIS_TYPE = 0
CLASSIFICATION_TYPE = U
NORAD_CAT_ID   = 66335
ELEMENT_SET_NO = 999
REV_AT_EPOCH   = 508
BSTAR          = .13312961E-2
MEAN_MOTION_DOT = .55613E-3
MEAN_MOTION_DDOT = 0

CCSDS_OMM_VERS = 2.0
CREATION_DATE  = 
ORIGINATOR     = 

OBJECT_NAME    = STARLINK-35404
OBJECT_ID      = 2025-253T
CENTER_NAME    = EARTH
REF_FRAME      = TEME
TIME_SYSTEM    = UTC
MEAN_ELEMENT_THEORY = SGP/SGP4

EPOCH          = 2025-12-01T05:01:00.229152
MEAN_MOTION    = 15.50619539
ECCENTRICITY   = .00008066
INCLINATION    = 42.9997
RA_OF_ASC_NODE = 52.0962
ARG_OF_PERICENTER = 269.8503
MEAN_ANOMALY   = 90.2265

EPHEMERIS_TYPE = 0
CLASSIFICATION_TYPE = U
NORAD_CAT_ID   = 66336
ELEMENT_SET_NO = 999
REV_AT_EPOCH   = 514
BSTAR          = .15702228E-2
MEAN_MOTION_DOT = .93011E-3
MEAN_MOTION_DDOT = 0

